[{"OBJECT_NAME":"KUIPER-00136","OBJECT_ID":"2025-228R","EPOCH":"2026-03-09T23:29:35.456640","MEAN_MOTION":14.79944154,"ECCENTRICITY":0.00014544,"INCLINATION":51.902,"RA_OF_ASC_NODE":346.8663,"ARG_OF_PERICENTER":112.1854,"MEAN_ANOMALY":247.9263,"EPHEMERIS_TYPE":0,"CLASSIFICATION_TYPE":"U","NORAD_CAT_ID":65962,"ELEMENT_SET_NO":999,"REV_AT_EPOCH":2344,"BSTAR":0.00050307872,"MEAN_MOTION_DOT":3.617e-5,"MEAN_MOTION_DDOT":0},{"OBJECT_NAME":"OPS 1264 (DMSP 4A F4)","OBJECT_ID":"1967-096A","EPOCH":"2026-03-09T17:41:20.597280","MEAN_MOTION":14.62887578,"ECCENTRICITY":0.00940355,"INCLINATION":99.1905,"RA_OF_ASC_NODE":133.4241,"ARG_OF_PERICENTER":54.8064,"MEAN_ANOMALY":306.1896,"EPHEMERIS_TYPE":0,"CLASSIFICATION_TYPE":"U","NORAD_CAT_ID":2980,"ELEMENT_SET_NO":999,"REV_AT_EPOCH":7258,"BSTAR":0.00013627919,"MEAN_MOTION_DOT":6.79e-6,"MEAN_MOTION_DDOT":0}]
